{
    "links": {
        "self": "http://www.neowsapp.com/rest/v1/neo/3428344?api_key=iIulBulltgU6a56xZRHN4H3l9WmuAYTsLGpBGhQ2"
    },
    "id": "3428344",
    "neo_reference_id": "3428344",
    "name": "(2008 SY148)",
    "designation": "2008 SY148",
    "nasa_jpl_url": "http://ssd.jpl.nasa.gov/sbdb.cgi?sstr=3428344",
    "absolute_magnitude_h": 21.8,
    "estimated_diameter": {
        "kilometers": {
            "estimated_diameter_min": 0.1160259082,
            "estimated_diameter_max": 0.2594418179
        },
        "meters": {
            "estimated_diameter_min": 116.0259082094,
            "estimated_diameter_max": 259.4418179074
        },
        "miles": {
            "estimated_diameter_min": 0.0720951346,
            "estimated_diameter_max": 0.1612096218
        },
        "feet": {
            "estimated_diameter_min": 380.6624406898,
            "estimated_diameter_max": 851.1870938635
        }
    },
    "is_potentially_hazardous_asteroid": true,
    "close_approach_data": [
        {
            "close_approach_date": "2008-09-28",
            "close_approach_date_full": "2008-Sep-28 03:46",
            "epoch_date_close_approach": 1222573560000,
            "relative_velocity": {
                "kilometers_per_second": "15.6297754412",
                "kilometers_per_hour": "56267.1915881609",
                "miles_per_hour": "34962.2446843214"
            },
            "miss_distance": {
                "astronomical": "0.0438377626",
                "lunar": "17.0528896514",
                "kilometers": "6558035.910525662",
                "miles": "4074974.5557196556"
            },
            "orbiting_body": "Earth"
        },
        {
            "close_approach_date": "2036-09-19",
            "close_approach_date_full": "2036-Sep-19 23:17",
            "epoch_date_close_approach": 2105479020000,
            "relative_velocity": {
                "kilometers_per_second": "16.2431389912",
                "kilometers_per_hour": "58475.3003684248",
                "miles_per_hour": "36334.2776094804"
            },
            "miss_distance": {
                "astronomical": "0.2223116652",
                "lunar": "86.4792377628",
                "kilometers": "33257351.590073124",
                "miles": "20665160.0218681512"
            },
            "orbiting_body": "Earth"
        },
        {
            "close_approach_date": "2040-03-28",
            "close_approach_date_full": "2040-Mar-28 02:37",
            "epoch_date_close_approach": 2216515020000,
            "relative_velocity": {
                "kilometers_per_second": "14.962633594",
                "kilometers_per_hour": "53865.4809384389",
                "miles_per_hour": "33469.9150864428"
            },
            "miss_distance": {
                "astronomical": "0.4865855682",
                "lunar": "189.2817860298",
                "kilometers": "72792164.575459734",
                "miles": "45230953.6799989692"
            },
            "orbiting_body": "Earth"
        },
        {
            "close_approach_date": "2043-09-16",
            "close_approach_date_full": "2043-Sep-16 03:02",
            "epoch_date_close_approach": 2325985320000,
            "relative_velocity": {
                "kilometers_per_second": "17.2061514656",
                "kilometers_per_hour": "61942.1452760023",
                "miles_per_hour": "38488.4402133027"
            },
            "miss_distance": {
                "astronomical": "0.3176949115",
                "lunar": "123.5833205735",
                "kilometers": "47526482.070238505",
                "miles": "29531586.560581169"
            },
            "orbiting_body": "Earth"
        }
    ],
    "orbital_data": {
        "orbit_id": "9",
        "orbit_determination_date": "2017-04-06 09:02:48",
        "first_observation_date": "2008-09-29",
        "last_observation_date": "2008-10-04",
        "data_arc_in_days": 5,
        "observations_used": 18,
        "orbit_uncertainty": "8",
        "minimum_orbit_intersection": ".0130983",
        "jupiter_tisserand_invariant": "4.998",
        "epoch_osculation": "2454740.5",
        "eccentricity": ".1946758344178715",
        "semi_major_axis": "1.252285106272788",
        "inclination": "28.83760456672452",
        "ascending_node_longitude": "187.292327419511",
        "orbital_period": "511.8624252086396",
        "perihelion_distance": "1.00849545828006",
        "perihelion_argument": "164.3664050635743",
        "aphelion_distance": "1.496074754265516",
        "perihelion_time": "2454722.517092662674",
        "mean_anomaly": "12.64763014944604",
        "mean_motion": ".703313981004292",
        "equinox": "J2000",
        "orbit_class": {
            "orbit_class_type": "APO",
            "orbit_class_description": "Near-Earth asteroid orbits which cross the Earth’s orbit similar to that of 1862 Apollo",
            "orbit_class_range": "a (semi-major axis) > 1.0 AU; q (perihelion) < 1.017 AU"
        }
    },
    "is_sentry_object": false
}